SL-16 R/B               
1 22566U 93016B   26030.96757029  .00000243  00000+0  14939-3 0  9993
2 22566  71.0085 294.4125 0009682   8.0252 352.1024 14.15302090696837
COSMOS 2242             
1 22626U 93024A   26030.85679521  .00002365  00000+0  20595-3 0  9999
2 22626  82.5211 302.8974 0018009  73.8728 286.4475 14.96381200774733
SL-16 R/B               
1 22803U 93059B   26030.85703555  .00000020  00000+0  33841-4 0  9994
2 22803  70.9897  90.9122 0019532 268.0537  91.8349 14.17223189674178
ARIANE 40 R/B           
1 22830U 93061H   26030.92002804  .00000284  00000+0  11975-3 0  9999
2 22830  98.4996 100.5379 0011291  41.1279 319.0755 14.32839572688696
COSMOS 2278             
1 23087U 94023A   26030.97247317 -.00000183  00000+0 -70942-4 0  9998
2 23087  71.0516 254.0095 0006292  84.6437 275.5403 14.14366114639474
SL-16 R/B               
1 23088U 94023B   26030.75328783 -.00000232  00000+0 -95408-4 0  9991
2 23088  71.0002 150.5578 0004342 320.1882  39.8922 14.15005269640726
SL-16 R/B               
1 23343U 94074B   26030.98468846  .00000620  00000+0  89862-4 0  9997
2 23343  97.7155  63.3216 0006355 357.3452  65.8173 14.79360222681674
SL-16 R/B               
1 23405U 94077B   26030.82038162 -.00000214  00000+0 -85067-4 0  9990
2 23405  70.9820  72.1607 0004679 246.3814 113.6817 14.15557571610879
ARIANE 40+ R/B          
1 23561U 95021B   26030.74270271  .00000405  00000+0  14313-3 0  9998
2 23561  98.4575 102.7246 0005741 252.1971 220.0197 14.39742676613788
SL-16 R/B               
1 23705U 95058B   26030.96684582  .00000042  00000+0  45691-4 0  9997
2 23705  71.0191 259.4543 0012823 187.0773 173.0171 14.15487977562511
SL-16 R/B               
1 24298U 96051B   26030.92238587  .00000074  00000+0  66717-4 0  9992
2 24298  70.7568 255.1803 0018159 200.1719 159.8685 14.12404795516313
ORBVIEW 2 (SEASTAR)     
1 24883U 97037A   26030.91777584  .00000385  00000+0  15030-3 0  9997
2 24883  98.8502 194.2428 0002594 150.5654 209.5678 14.35463738503059
