CCSDS_OMM_VERS = 2.0
CREATION_DATE  = 
ORIGINATOR     = 

OBJECT_NAME    = SL-16 R/B
OBJECT_ID      = 1993-016B
CENTER_NAME    = EARTH
REF_FRAME      = TEME
TIME_SYSTEM    = UTC
MEAN_ELEMENT_THEORY = SGP/SGP4

EPOCH          = 2026-01-30T23:13:18.073056
MEAN_MOTION    = 14.15302090
ECCENTRICITY   = .0009682
INCLINATION    = 71.0085
RA_OF_ASC_NODE = 294.4125
ARG_OF_PERICENTER = 8.0252
MEAN_ANOMALY   = 352.1024

EPHEMERIS_TYPE = 0
CLASSIFICATION_TYPE = U
NORAD_CAT_ID   = 22566
ELEMENT_SET_NO = 999
REV_AT_EPOCH   = 69683
BSTAR          = .14939075E-3
MEAN_MOTION_DOT = .243E-5
MEAN_MOTION_DDOT = 0

CCSDS_OMM_VERS = 2.0
CREATION_DATE  = 
ORIGINATOR     = 

OBJECT_NAME    = COSMOS 2242
OBJECT_ID      = 1993-024A
CENTER_NAME    = EARTH
REF_FRAME      = TEME
TIME_SYSTEM    = UTC
MEAN_ELEMENT_THEORY = SGP/SGP4

EPOCH          = 2026-01-30T20:33:47.106144
MEAN_MOTION    = 14.96381200
ECCENTRICITY   = .00180091
INCLINATION    = 82.5211
RA_OF_ASC_NODE = 302.8974
ARG_OF_PERICENTER = 73.8728
MEAN_ANOMALY   = 286.4475

EPHEMERIS_TYPE = 0
CLASSIFICATION_TYPE = U
NORAD_CAT_ID   = 22626
ELEMENT_SET_NO = 999
REV_AT_EPOCH   = 77473
BSTAR          = .20595136E-3
MEAN_MOTION_DOT = .2365E-4
MEAN_MOTION_DDOT = 0

CCSDS_OMM_VERS = 2.0
CREATION_DATE  = 
ORIGINATOR     = 

OBJECT_NAME    = SL-16 R/B
OBJECT_ID      = 1993-059B
CENTER_NAME    = EARTH
REF_FRAME      = TEME
TIME_SYSTEM    = UTC
MEAN_ELEMENT_THEORY = SGP/SGP4

EPOCH          = 2026-01-30T20:34:07.871520
MEAN_MOTION    = 14.17223189
ECCENTRICITY   = .00195328
INCLINATION    = 70.9897
RA_OF_ASC_NODE = 90.9122
ARG_OF_PERICENTER = 268.0537
MEAN_ANOMALY   = 91.8349

EPHEMERIS_TYPE = 0
CLASSIFICATION_TYPE = U
NORAD_CAT_ID   = 22803
ELEMENT_SET_NO = 999
REV_AT_EPOCH   = 67417
BSTAR          = .33841249E-4
MEAN_MOTION_DOT = .2E-6
MEAN_MOTION_DDOT = 0

CCSDS_OMM_VERS = 2.0
CREATION_DATE  = 
ORIGINATOR     = 

OBJECT_NAME    = ARIANE 40 R/B
OBJECT_ID      = 1993-061H
CENTER_NAME    = EARTH
REF_FRAME      = TEME
TIME_SYSTEM    = UTC
MEAN_ELEMENT_THEORY = SGP/SGP4

EPOCH          = 2026-01-30T22:04:50.422656
MEAN_MOTION    = 14.32839572
ECCENTRICITY   = .00112919
INCLINATION    = 98.4996
RA_OF_ASC_NODE = 100.5379
ARG_OF_PERICENTER = 41.1279
MEAN_ANOMALY   = 319.0755

EPHEMERIS_TYPE = 0
CLASSIFICATION_TYPE = U
NORAD_CAT_ID   = 22830
ELEMENT_SET_NO = 999
REV_AT_EPOCH   = 68869
BSTAR          = .11974791E-3
MEAN_MOTION_DOT = .284E-5
MEAN_MOTION_DDOT = 0

CCSDS_OMM_VERS = 2.0
CREATION_DATE  = 
ORIGINATOR     = 

OBJECT_NAME    = COSMOS 2278
OBJECT_ID      = 1994-023A
CENTER_NAME    = EARTH
REF_FRAME      = TEME
TIME_SYSTEM    = UTC
MEAN_ELEMENT_THEORY = SGP/SGP4

EPOCH          = 2026-01-30T23:20:21.681888
MEAN_MOTION    = 14.14366114
ECCENTRICITY   = .00062923
INCLINATION    = 71.0516
RA_OF_ASC_NODE = 254.0095
ARG_OF_PERICENTER = 84.6437
MEAN_ANOMALY   = 275.5403

EPHEMERIS_TYPE = 0
CLASSIFICATION_TYPE = U
NORAD_CAT_ID   = 23087
ELEMENT_SET_NO = 999
REV_AT_EPOCH   = 63947
BSTAR          = -.70941965E-4
MEAN_MOTION_DOT = -.183E-5
MEAN_MOTION_DDOT = 0

CCSDS_OMM_VERS = 2.0
CREATION_DATE  = 
ORIGINATOR     = 

OBJECT_NAME    = SL-16 R/B
OBJECT_ID      = 1994-023B
CENTER_NAME    = EARTH
REF_FRAME      = TEME
TIME_SYSTEM    = UTC
MEAN_ELEMENT_THEORY = SGP/SGP4

EPOCH          = 2026-01-30T18:04:44.068512
MEAN_MOTION    = 14.15005269
ECCENTRICITY   = .00043425
INCLINATION    = 71.0002
RA_OF_ASC_NODE = 150.5578
ARG_OF_PERICENTER = 320.1882
MEAN_ANOMALY   = 39.8922

EPHEMERIS_TYPE = 0
CLASSIFICATION_TYPE = U
NORAD_CAT_ID   = 23088
ELEMENT_SET_NO = 999
REV_AT_EPOCH   = 64072
BSTAR          = -.95407793E-4
MEAN_MOTION_DOT = -.232E-5
MEAN_MOTION_DDOT = 0

CCSDS_OMM_VERS = 2.0
CREATION_DATE  = 
ORIGINATOR     = 

OBJECT_NAME    = SL-16 R/B
OBJECT_ID      = 1994-074B
CENTER_NAME    = EARTH
REF_FRAME      = TEME
TIME_SYSTEM    = UTC
MEAN_ELEMENT_THEORY = SGP/SGP4

EPOCH          = 2026-01-30T23:37:57.082944
MEAN_MOTION    = 14.79360222
ECCENTRICITY   = .00063559
INCLINATION    = 97.7155
RA_OF_ASC_NODE = 63.3216
ARG_OF_PERICENTER = 357.3452
MEAN_ANOMALY   = 65.8173

EPHEMERIS_TYPE = 0
CLASSIFICATION_TYPE = U
NORAD_CAT_ID   = 23343
ELEMENT_SET_NO = 999
REV_AT_EPOCH   = 68167
BSTAR          = .89862442E-4
MEAN_MOTION_DOT = .62E-5
MEAN_MOTION_DDOT = 0

CCSDS_OMM_VERS = 2.0
CREATION_DATE  = 
ORIGINATOR     = 

OBJECT_NAME    = SL-16 R/B
OBJECT_ID      = 1994-077B
CENTER_NAME    = EARTH
REF_FRAME      = TEME
TIME_SYSTEM    = UTC
MEAN_ELEMENT_THEORY = SGP/SGP4

EPOCH          = 2026-01-30T19:41:20.971968
MEAN_MOTION    = 14.15557571
ECCENTRICITY   = .00046795
INCLINATION    = 70.9820
RA_OF_ASC_NODE = 72.1607
ARG_OF_PERICENTER = 246.3814
MEAN_ANOMALY   = 113.6817

EPHEMERIS_TYPE = 0
CLASSIFICATION_TYPE = U
NORAD_CAT_ID   = 23405
ELEMENT_SET_NO = 999
REV_AT_EPOCH   = 61087
BSTAR          = -.85067039E-4
MEAN_MOTION_DOT = -.214E-5
MEAN_MOTION_DDOT = 0

CCSDS_OMM_VERS = 2.0
CREATION_DATE  = 
ORIGINATOR     = 

OBJECT_NAME    = ARIANE 40+ R/B
OBJECT_ID      = 1995-021B
CENTER_NAME    = EARTH
REF_FRAME      = TEME
TIME_SYSTEM    = UTC
MEAN_ELEMENT_THEORY = SGP/SGP4

EPOCH          = 2026-01-30T17:49:29.514144
MEAN_MOTION    = 14.39742676
ECCENTRICITY   = .00057417
INCLINATION    = 98.4575
RA_OF_ASC_NODE = 102.7246
ARG_OF_PERICENTER = 252.1971
MEAN_ANOMALY   = 220.0197

EPHEMERIS_TYPE = 0
CLASSIFICATION_TYPE = U
NORAD_CAT_ID   = 23561
ELEMENT_SET_NO = 999
REV_AT_EPOCH   = 61378
BSTAR          = .14312894E-3
MEAN_MOTION_DOT = .405E-5
MEAN_MOTION_DDOT = 0

CCSDS_OMM_VERS = 2.0
CREATION_DATE  = 
ORIGINATOR     = 

OBJECT_NAME    = SL-16 R/B
OBJECT_ID      = 1995-058B
CENTER_NAME    = EARTH
REF_FRAME      = TEME
TIME_SYSTEM    = UTC
MEAN_ELEMENT_THEORY = SGP/SGP4

EPOCH          = 2026-01-30T23:12:15.478848
MEAN_MOTION    = 14.15487977
ECCENTRICITY   = .00128232
INCLINATION    = 71.0191
RA_OF_ASC_NODE = 259.4543
ARG_OF_PERICENTER = 187.0773
MEAN_ANOMALY   = 173.0171

EPHEMERIS_TYPE = 0
CLASSIFICATION_TYPE = U
NORAD_CAT_ID   = 23705
ELEMENT_SET_NO = 999
REV_AT_EPOCH   = 56251
BSTAR          = .45691195E-4
MEAN_MOTION_DOT = .42E-6
MEAN_MOTION_DDOT = 0

CCSDS_OMM_VERS = 2.0
CREATION_DATE  = 
ORIGINATOR     = 

OBJECT_NAME    = SL-16 R/B
OBJECT_ID      = 1996-051B
CENTER_NAME    = EARTH
REF_FRAME      = TEME
TIME_SYSTEM    = UTC
MEAN_ELEMENT_THEORY = SGP/SGP4

EPOCH          = 2026-01-30T22:08:14.139168
MEAN_MOTION    = 14.12404795
ECCENTRICITY   = .00181597
INCLINATION    = 70.7568
RA_OF_ASC_NODE = 255.1803
ARG_OF_PERICENTER = 200.1719
MEAN_ANOMALY   = 159.8685

EPHEMERIS_TYPE = 0
CLASSIFICATION_TYPE = U
NORAD_CAT_ID   = 24298
ELEMENT_SET_NO = 999
REV_AT_EPOCH   = 51631
BSTAR          = .66717248E-4
MEAN_MOTION_DOT = .74E-6
MEAN_MOTION_DDOT = 0

CCSDS_OMM_VERS = 2.0
CREATION_DATE  = 
ORIGINATOR     = 

OBJECT_NAME    = ORBVIEW 2 (SEASTAR)
OBJECT_ID      = 1997-037A
CENTER_NAME    = EARTH
REF_FRAME      = TEME
TIME_SYSTEM    = UTC
MEAN_ELEMENT_THEORY = SGP/SGP4

EPOCH          = 2026-01-30T22:01:35.832576
MEAN_MOTION    = 14.35463738
ECCENTRICITY   = .00025946
INCLINATION    = 98.8502
RA_OF_ASC_NODE = 194.2428
ARG_OF_PERICENTER = 150.5654
MEAN_ANOMALY   = 209.5678

EPHEMERIS_TYPE = 0
CLASSIFICATION_TYPE = U
NORAD_CAT_ID   = 24883
ELEMENT_SET_NO = 999
REV_AT_EPOCH   = 50305
BSTAR          = .150299E-3
MEAN_MOTION_DOT = .385E-5
MEAN_MOTION_DDOT = 0

